STARLINK-35544          
1 65922U 25225N   25310.69606142  .00059968  00000+0  10765-2 0  9992
2 65922  53.1604  18.6484 0001155  88.2871 271.8271 15.49347927  5556
STARLINK-35484          
1 65923U 25225P   25310.69571753  .00066512  00000+0  11928-2 0  9997
2 65923  53.1602  18.6461 0001185  94.3085 265.8060 15.49331607  5555
STARLINK-34994          
1 65924U 25225Q   25310.75988409  .00078560  00000+0  14041-2 0  9990
2 65924  53.1601  18.3352 0001593  71.2713 288.8469 15.49355252  5567
STARLINK-35458          
1 65925U 25225R   25310.75920188  .00083965  00000+0  15005-2 0  9997
2 65925  53.1601  18.3304 0002183  62.9461 297.1771 15.49329311  5564
STARLINK-35492          
1 65926U 25225S   25310.69502989  .00045421  00000+0  81874-3 0  9999
2 65926  53.1600  18.6409 0001224  87.8543 272.2606 15.49352218  5557
STARLINK-35494          
1 65927U 25225T   25310.75885878  .00087428  00000+0  15609-2 0  9993
2 65927  53.1602  18.3274 0002167  64.8178 295.3056 15.49336854  5567
STARLINK-35493          
1 65928U 25225U   25310.75817185  .00088121  00000+0  15730-2 0  9996
2 65928  53.1603  18.3226 0002530  59.8918 300.2342 15.49337347  5568
STARLINK-35175          
1 65929U 25225V   25310.75782512  .00103637  00000+0  18441-2 0  9994
2 65929  53.1600  18.3204 0001253  77.4513 282.6636 15.49350428  5564
STARLINK-35513          
1 65930U 25225W   25310.69400041  .00065622  00000+0  11761-2 0  9992
2 65930  53.1602  18.6332 0001103  99.2678 260.8456 15.49355191  5550
STARLINK-35526          
1 65931U 25225X   25310.69297062  .00060523  00000+0  10862-2 0  9996
2 65931  53.1600  18.6258 0001188  87.1867 272.9278 15.49351418  5559
STARLINK-35436          
1 65932U 25225Y   25310.69262742  .00061439  00000+0  11024-2 0  9992
2 65932  53.1600  18.6239 0001362  80.3482 279.7681 15.49351483  5556
STARLINK-35192          
1 65933U 25225Z   25310.75610975  .00075171  00000+0  13456-2 0  9994
2 65933  53.1601  18.3082 0001831  71.1807 288.9401 15.49330848  5566
