CCSDS_OMM_VERS = 2.0
CREATION_DATE  = 
ORIGINATOR     = 

OBJECT_NAME    = STARLINK-35544
OBJECT_ID      = 2025-225N
CENTER_NAME    = EARTH
REF_FRAME      = TEME
TIME_SYSTEM    = UTC
MEAN_ELEMENT_THEORY = SGP/SGP4

EPOCH          = 2025-11-06T16:42:19.706688
MEAN_MOTION    = 15.49347927
ECCENTRICITY   = .00011552
INCLINATION    = 53.1604
RA_OF_ASC_NODE = 18.6484
ARG_OF_PERICENTER = 88.2871
MEAN_ANOMALY   = 271.8271

EPHEMERIS_TYPE = 0
CLASSIFICATION_TYPE = U
NORAD_CAT_ID   = 65922
ELEMENT_SET_NO = 999
REV_AT_EPOCH   = 555
BSTAR          = .10765386E-2
MEAN_MOTION_DOT = .59968E-3
MEAN_MOTION_DDOT = 0

CCSDS_OMM_VERS = 2.0
CREATION_DATE  = 
ORIGINATOR     = 

OBJECT_NAME    = STARLINK-35484
OBJECT_ID      = 2025-225P
CENTER_NAME    = EARTH
REF_FRAME      = TEME
TIME_SYSTEM    = UTC
MEAN_ELEMENT_THEORY = SGP/SGP4

EPOCH          = 2025-11-06T16:41:49.994592
MEAN_MOTION    = 15.49331607
ECCENTRICITY   = .00011856
INCLINATION    = 53.1602
RA_OF_ASC_NODE = 18.6461
ARG_OF_PERICENTER = 94.3085
MEAN_ANOMALY   = 265.8060

EPHEMERIS_TYPE = 0
CLASSIFICATION_TYPE = U
NORAD_CAT_ID   = 65923
ELEMENT_SET_NO = 999
REV_AT_EPOCH   = 555
BSTAR          = .11928365E-2
MEAN_MOTION_DOT = .66512E-3
MEAN_MOTION_DDOT = 0

CCSDS_OMM_VERS = 2.0
CREATION_DATE  = 
ORIGINATOR     = 

OBJECT_NAME    = STARLINK-34994
OBJECT_ID      = 2025-225Q
CENTER_NAME    = EARTH
REF_FRAME      = TEME
TIME_SYSTEM    = UTC
MEAN_ELEMENT_THEORY = SGP/SGP4

EPOCH          = 2025-11-06T18:14:13.985376
MEAN_MOTION    = 15.49355252
ECCENTRICITY   = .0001593
INCLINATION    = 53.1601
RA_OF_ASC_NODE = 18.3352
ARG_OF_PERICENTER = 71.2713
MEAN_ANOMALY   = 288.8469

EPHEMERIS_TYPE = 0
CLASSIFICATION_TYPE = U
NORAD_CAT_ID   = 65924
ELEMENT_SET_NO = 999
REV_AT_EPOCH   = 556
BSTAR          = .14041057E-2
MEAN_MOTION_DOT = .7856E-3
MEAN_MOTION_DDOT = 0

CCSDS_OMM_VERS = 2.0
CREATION_DATE  = 
ORIGINATOR     = 

OBJECT_NAME    = STARLINK-35458
OBJECT_ID      = 2025-225R
CENTER_NAME    = EARTH
REF_FRAME      = TEME
TIME_SYSTEM    = UTC
MEAN_ELEMENT_THEORY = SGP/SGP4

EPOCH          = 2025-11-06T18:13:15.042432
MEAN_MOTION    = 15.49329311
ECCENTRICITY   = .00021836
INCLINATION    = 53.1601
RA_OF_ASC_NODE = 18.3304
ARG_OF_PERICENTER = 62.9461
MEAN_ANOMALY   = 297.1771

EPHEMERIS_TYPE = 0
CLASSIFICATION_TYPE = U
NORAD_CAT_ID   = 65925
ELEMENT_SET_NO = 999
REV_AT_EPOCH   = 556
BSTAR          = .15004516E-2
MEAN_MOTION_DOT = .83965E-3
MEAN_MOTION_DDOT = 0

CCSDS_OMM_VERS = 2.0
CREATION_DATE  = 
ORIGINATOR     = 

OBJECT_NAME    = STARLINK-35492
OBJECT_ID      = 2025-225S
CENTER_NAME    = EARTH
REF_FRAME      = TEME
TIME_SYSTEM    = UTC
MEAN_ELEMENT_THEORY = SGP/SGP4

EPOCH          = 2025-11-06T16:40:50.582496
MEAN_MOTION    = 15.49352218
ECCENTRICITY   = .00012243
INCLINATION    = 53.1600
RA_OF_ASC_NODE = 18.6409
ARG_OF_PERICENTER = 87.8543
MEAN_ANOMALY   = 272.2606

EPHEMERIS_TYPE = 0
CLASSIFICATION_TYPE = U
NORAD_CAT_ID   = 65926
ELEMENT_SET_NO = 999
REV_AT_EPOCH   = 555
BSTAR          = .81874077E-3
MEAN_MOTION_DOT = .45421E-3
MEAN_MOTION_DDOT = 0

CCSDS_OMM_VERS = 2.0
CREATION_DATE  = 
ORIGINATOR     = 

OBJECT_NAME    = STARLINK-35494
OBJECT_ID      = 2025-225T
CENTER_NAME    = EARTH
REF_FRAME      = TEME
TIME_SYSTEM    = UTC
MEAN_ELEMENT_THEORY = SGP/SGP4

EPOCH          = 2025-11-06T18:12:45.398592
MEAN_MOTION    = 15.49336854
ECCENTRICITY   = .00021677
INCLINATION    = 53.1602
RA_OF_ASC_NODE = 18.3274
ARG_OF_PERICENTER = 64.8178
MEAN_ANOMALY   = 295.3056

EPHEMERIS_TYPE = 0
CLASSIFICATION_TYPE = U
NORAD_CAT_ID   = 65927
ELEMENT_SET_NO = 999
REV_AT_EPOCH   = 556
BSTAR          = .1560896E-2
MEAN_MOTION_DOT = .87428E-3
MEAN_MOTION_DDOT = 0

CCSDS_OMM_VERS = 2.0
CREATION_DATE  = 
ORIGINATOR     = 

OBJECT_NAME    = STARLINK-35493
OBJECT_ID      = 2025-225U
CENTER_NAME    = EARTH
REF_FRAME      = TEME
TIME_SYSTEM    = UTC
MEAN_ELEMENT_THEORY = SGP/SGP4

EPOCH          = 2025-11-06T18:11:46.047840
MEAN_MOTION    = 15.49337347
ECCENTRICITY   = .00025308
INCLINATION    = 53.1603
RA_OF_ASC_NODE = 18.3226
ARG_OF_PERICENTER = 59.8918
MEAN_ANOMALY   = 300.2342

EPHEMERIS_TYPE = 0
CLASSIFICATION_TYPE = U
NORAD_CAT_ID   = 65928
ELEMENT_SET_NO = 999
REV_AT_EPOCH   = 556
BSTAR          = .15730077E-2
MEAN_MOTION_DOT = .88121E-3
MEAN_MOTION_DDOT = 0

CCSDS_OMM_VERS = 2.0
CREATION_DATE  = 
ORIGINATOR     = 

OBJECT_NAME    = STARLINK-35175
OBJECT_ID      = 2025-225V
CENTER_NAME    = EARTH
REF_FRAME      = TEME
TIME_SYSTEM    = UTC
MEAN_ELEMENT_THEORY = SGP/SGP4

EPOCH          = 2025-11-06T18:11:16.090368
MEAN_MOTION    = 15.49350428
ECCENTRICITY   = .00012531
INCLINATION    = 53.1600
RA_OF_ASC_NODE = 18.3204
ARG_OF_PERICENTER = 77.4513
MEAN_ANOMALY   = 282.6636

EPHEMERIS_TYPE = 0
CLASSIFICATION_TYPE = U
NORAD_CAT_ID   = 65929
ELEMENT_SET_NO = 999
REV_AT_EPOCH   = 556
BSTAR          = .18441453E-2
MEAN_MOTION_DOT = .103637E-2
MEAN_MOTION_DDOT = 0

CCSDS_OMM_VERS = 2.0
CREATION_DATE  = 
ORIGINATOR     = 

OBJECT_NAME    = STARLINK-35513
OBJECT_ID      = 2025-225W
CENTER_NAME    = EARTH
REF_FRAME      = TEME
TIME_SYSTEM    = UTC
MEAN_ELEMENT_THEORY = SGP/SGP4

EPOCH          = 2025-11-06T16:39:21.635424
MEAN_MOTION    = 15.49355191
ECCENTRICITY   = .00011038
INCLINATION    = 53.1602
RA_OF_ASC_NODE = 18.6332
ARG_OF_PERICENTER = 99.2678
MEAN_ANOMALY   = 260.8456

EPHEMERIS_TYPE = 0
CLASSIFICATION_TYPE = U
NORAD_CAT_ID   = 65930
ELEMENT_SET_NO = 999
REV_AT_EPOCH   = 555
BSTAR          = .11761421E-2
MEAN_MOTION_DOT = .65622E-3
MEAN_MOTION_DDOT = 0

CCSDS_OMM_VERS = 2.0
CREATION_DATE  = 
ORIGINATOR     = 

OBJECT_NAME    = STARLINK-35526
OBJECT_ID      = 2025-225X
CENTER_NAME    = EARTH
REF_FRAME      = TEME
TIME_SYSTEM    = UTC
MEAN_ELEMENT_THEORY = SGP/SGP4

EPOCH          = 2025-11-06T16:37:52.661568
MEAN_MOTION    = 15.49351418
ECCENTRICITY   = .00011885
INCLINATION    = 53.1600
RA_OF_ASC_NODE = 18.6258
ARG_OF_PERICENTER = 87.1867
MEAN_ANOMALY   = 272.9278

EPHEMERIS_TYPE = 0
CLASSIFICATION_TYPE = U
NORAD_CAT_ID   = 65931
ELEMENT_SET_NO = 999
REV_AT_EPOCH   = 555
BSTAR          = .10862178E-2
MEAN_MOTION_DOT = .60523E-3
MEAN_MOTION_DDOT = 0

CCSDS_OMM_VERS = 2.0
CREATION_DATE  = 
ORIGINATOR     = 

OBJECT_NAME    = STARLINK-35436
OBJECT_ID      = 2025-225Y
CENTER_NAME    = EARTH
REF_FRAME      = TEME
TIME_SYSTEM    = UTC
MEAN_ELEMENT_THEORY = SGP/SGP4

EPOCH          = 2025-11-06T16:37:23.009088
MEAN_MOTION    = 15.49351483
ECCENTRICITY   = .00013625
INCLINATION    = 53.1600
RA_OF_ASC_NODE = 18.6239
ARG_OF_PERICENTER = 80.3482
MEAN_ANOMALY   = 279.7681

EPHEMERIS_TYPE = 0
CLASSIFICATION_TYPE = U
NORAD_CAT_ID   = 65932
ELEMENT_SET_NO = 999
REV_AT_EPOCH   = 555
BSTAR          = .11023998E-2
MEAN_MOTION_DOT = .61439E-3
MEAN_MOTION_DDOT = 0

CCSDS_OMM_VERS = 2.0
CREATION_DATE  = 
ORIGINATOR     = 

OBJECT_NAME    = STARLINK-35192
OBJECT_ID      = 2025-225Z
CENTER_NAME    = EARTH
REF_FRAME      = TEME
TIME_SYSTEM    = UTC
MEAN_ELEMENT_THEORY = SGP/SGP4

EPOCH          = 2025-11-06T18:08:47.882400
MEAN_MOTION    = 15.49330848
ECCENTRICITY   = .00018317
INCLINATION    = 53.1601
RA_OF_ASC_NODE = 18.3082
ARG_OF_PERICENTER = 71.1807
MEAN_ANOMALY   = 288.9401

EPHEMERIS_TYPE = 0
CLASSIFICATION_TYPE = U
NORAD_CAT_ID   = 65933
ELEMENT_SET_NO = 999
REV_AT_EPOCH   = 556
BSTAR          = .13455984E-2
MEAN_MOTION_DOT = .75171E-3
MEAN_MOTION_DDOT = 0

